NORAD_CAT_ID,OBJECT_NAME,OBJECT_TYPE,EPOCH,MEAN_MOTION,ECCENTRICITY,INCLINATION,RA_OF_ASC_NODE,ARG_OF_PERICENTER,MEAN_ANOMALY,BSTAR,MEAN_MOTION_DOT,MEAN_MOTION_DDOT,TLE_LINE0,TLE_LINE1,TLE_LINE2,SEMIMAJOR_AXIS,PERIOD,APOGEE,PERIGEE,DECAYED
52599.0,STARLINK-4024,PAYLOAD,2023-02-21 19:57:54,15.08852342,0.0001333,53.2146,230.4439,88.3665,271.748,0.0002983,4.464e-05,0.0,0 STARLINK-4024,1 52599U 22052B   23052.83187536  .00004464  00000-0  29830-3 0  9997,2 52599  53.2146 230.4439 0001333  88.3665 271.7480 15.08852342 43806,6917.843,95.437,540.63,538.786,0.0
52599.0,STARLINK-4024,PAYLOAD,2023-02-22 11:51:45,15.08842976,0.0001599,53.2158,227.4726,96.6017,263.5157,0.00012331,1.675e-05,0.0,0 STARLINK-4024,1 52599U 22052B   23053.49427890  .00001675  00000-0  12331-3 0  9999,2 52599  53.2158 227.4726 0001599  96.6017 263.5157 15.08842976 43476,6917.871,95.437,540.842,538.63,0.0
52599.0,STARLINK-4024,PAYLOAD,2023-02-22 13:27:08,15.08842469,0.0001587,53.2161,227.1757,94.0338,266.0835,0.0001383,1.914e-05,0.0,0 STARLINK-4024,1 52599U 22052B   23053.56051944  .00001914  00000-0  13830-3 0  9991,2 52599  53.2161 227.1757 0001587  94.0338 266.0835 15.08842469 43913,6917.873,95.437,540.836,538.64,0.0
52599.0,STARLINK-4024,PAYLOAD,2023-02-22 21:24:04,15.0884544,0.0001341,53.2152,225.6867,92.2854,267.8291,0.00018347,2.634e-05,0.0,0 STARLINK-4024,1 52599U 22052B   23053.89171741  .00002634  00000-0  18347-3 0  9993,2 52599  53.2152 225.6867 0001341  92.2854 267.8291 15.08845440 43961,6917.864,95.437,540.656,538.801,0.0
52599.0,STARLINK-4024,PAYLOAD,2023-02-23 11:42:32,15.08840314,0.0001365,53.215,223.0098,91.6458,268.469,9.3571e-05,1.202e-05,0.0,0 STARLINK-4024,1 52599U 22052B   23054.48787950  .00001202  00000-0  93571-4 0  9997,2 52599  53.2150 223.0098 0001365  91.6458 268.4690 15.08840314 43624,6917.879,95.438,540.689,538.8,0.0
52599.0,STARLINK-4024,PAYLOAD,2023-02-23 21:14:51,15.0884963,0.000125,53.2152,221.2256,91.4015,268.712,0.00030222,4.526e-05,0.0,0 STARLINK-4024,1 52599U 22052B   23054.88531598  .00004526  00000-0  30222-3 0  9991,2 52599  53.2152 221.2256 0001250  91.4015 268.7120 15.08849630 44118,6917.851,95.437,540.581,538.851,0.0
52599.0,STARLINK-4024,PAYLOAD,2023-02-24 11:33:20,15.08834202,0.0001259,53.2149,218.5486,102.1498,257.9635,9.5211e-06,-1.36e-06,0.0,0 STARLINK-4024,1 52599U 22052B   23055.48148208 -.00000136  00000-0  95211-5 0  9995,2 52599  53.2149 218.5486 0001259 102.1498 257.9635 15.08834202 44202,6917.898,95.438,540.634,538.892,0.0
52599.0,STARLINK-4024,PAYLOAD,2023-02-24 17:54:52,15.08837427,0.000118,53.2149,217.3591,101.9836,258.1289,4.1988e-05,3.8e-06,0.0,0 STARLINK-4024,1 52599U 22052B   23055.74644084  .00000380  00000-0  41988-4 0  9998,2 52599  53.2149 217.3591 0001180 101.9836 258.1289 15.08837427 43818,6917.888,95.438,540.57,538.937,0.0
52599.0,STARLINK-4024,PAYLOAD,2023-02-24 21:05:38,15.08838959,0.000115,53.215,216.7644,100.4397,259.6725,7.6426e-05,9.29e-06,0.0,0 STARLINK-4024,1 52599U 22052B   23055.87892062  .00000929  00000-0  76426-4 0  9997,2 52599  53.2150 216.7644 0001150 100.4397 259.6725 15.08838959 44267,6917.884,95.438,540.544,538.953,0.0
52599.0,STARLINK-4024,PAYLOAD,2023-02-25 09:48:45,15.08792466,8.69e-05,53.2166,214.3867,220.9757,139.117,-0.00077065,-0.00012515,0.0,0 STARLINK-4024,1 52599U 22052B   23056.40885772 -.00012515  00000-0 -77065-3 0  9992,2 52599  53.2166 214.3867 0000869 220.9757 139.1170 15.08792466 43918,6918.026,95.441,540.492,539.29,0.0
52599.0,STARLINK-4024,PAYLOAD,2023-02-25 17:45:39,15.08839799,0.0001023,53.2155,212.899,94.2302,265.8807,0.00013781,1.906e-05,0.0,0 STARLINK-4024,1 52599U 22052B   23056.74004452  .00001906  00000-0  13781-3 0  9992,2 52599  53.2155 212.8990 0001023  94.2302 265.8807 15.08839799 43967,6917.881,95.438,540.454,539.038,0.0
52599.0,STARLINK-4024,PAYLOAD,2023-02-26 12:50:17,15.08853863,0.0001114,53.2148,209.3309,87.1401,272.9718,0.00052919,8.147e-05,0.0,0 STARLINK-4024,1 52599U 22052B   23057.53492170  .00008147  00000-0  52919-3 0  9998,2 52599  53.2148 209.3309 0001114  87.1401 272.9718 15.08853863 44516,6917.838,95.437,540.474,538.932,0.0
52599.0,STARLINK-4024,PAYLOAD,2023-02-26 19:11:49,15.08870531,0.000105,53.2145,208.1414,90.5674,269.5438,0.0011044,0.00017347,0.0,0 STARLINK-4024,1 52599U 22052B   23057.79987719  .00017347  00000-0  11044-2 0  9999,2 52599  53.2145 208.1414 0001050  90.5674 269.5438 15.08870531 44125,6917.787,95.436,540.378,538.926,0.0
52599.0,STARLINK-4024,PAYLOAD,2023-02-27 11:05:41,15.08843746,0.000114,53.2144,205.168,70.109,290.0024,0.00025336,3.747e-05,0.0,0 STARLINK-4024,1 52599U 22052B   23058.46228334  .00003747  00000-0  25336-3 0  9994,2 52599  53.2144 205.1680 0001140  70.1090 290.0024 15.08843746 44221,6917.869,95.437,540.523,538.945,0.0
52599.0,STARLINK-4024,PAYLOAD,2023-02-27 19:02:36,15.08886046,0.0001178,53.2144,203.681,72.8018,287.3103,0.0022663,0.0003601,0.0,0 STARLINK-4024,1 52599U 22052B   23058.79347705  .00036010  00000-0  22663-2 0  9992,2 52599  53.2144 203.6810 0001178  72.8018 287.3103 15.08886046 44271,6917.74,95.435,540.42,538.79,0.0
52599.0,STARLINK-4024,PAYLOAD,2023-02-28 02:59:32,15.08840517,8.59e-05,53.2144,202.194,76.6979,283.4109,0.0016947,0.00026786,0.0,0 STARLINK-4024,1 52599U 22052B   23059.12468197  .00026786  00000-0  16947-2 0  9996,2 52599  53.2144 202.1940 0000859  76.6979 283.4109 15.08840517 44324,6917.879,95.438,540.338,539.15,0.0
52599.0,STARLINK-4024,PAYLOAD,2023-02-28 14:07:14,15.08840423,0.0001063,53.2145,200.1122,85.1937,274.9177,0.00093555,0.00014633,0.0,0 STARLINK-4024,1 52599U 22052B   23059.58836511  .00014633  00000-0  93555-3 0  9994,2 52599  53.2145 200.1122 0001063  85.1937 274.9177 15.08840423 44395,6917.879,95.438,540.479,539.009,0.0
52599.0,STARLINK-4024,PAYLOAD,2023-02-28 20:28:47,15.08847149,0.0001655,53.2143,198.9223,87.1559,272.9623,0.0007706,0.00012,0.0,0 STARLINK-4024,1 52599U 22052B   23059.85332489  .00012000  00000-0  77060-3 0  9998,2 52599  53.2143 198.9223 0001655  87.1559 272.9623 15.08847149 44866,6917.859,95.437,540.868,538.579,0.0
52599.0,STARLINK-4024,PAYLOAD,2023-03-01 02:50:19,15.08826039,9.04e-05,53.2147,197.7336,103.8854,256.2238,-0.00013697,-2.466e-05,0.0,0 STARLINK-4024,1 52599U 22052B   23060.11828687 -.00002466  00000-0 -13697-3 0  9992,2 52599  53.2147 197.7336 0000904 103.8854 256.2238 15.08826039 44471,6917.923,95.438,540.413,539.163,0.0
52599.0,STARLINK-4024,PAYLOAD,2023-03-01 20:19:35,15.0883474,0.0001435,53.2146,194.4613,106.0811,254.0339,0.0011791,0.00018524,0.0,0 STARLINK-4024,1 52599U 22052B   23060.84693684  .00018524  00000-0  11791-2 0  9991,2 52599  53.2146 194.4613 0001435 106.0811 254.0339 15.08834740 45017,6917.896,95.438,540.754,538.769,0.0
52599.0,STARLINK-4024,PAYLOAD,2023-03-02 13:48:49,15.08856965,0.0001599,53.2146,191.1883,114.3295,245.7864,0.0010752,0.00016873,0.0,0 STARLINK-4024,1 52599U 22052B   23061.57557421  .00016873  00000-0  10752-2 0  9991,2 52599  53.2146 191.1883 0001599 114.3295 245.7864 15.08856965 45124,6917.829,95.436,540.8,538.587,0.0
52599.0,STARLINK-4024,PAYLOAD,2023-03-03 08:53:26,15.08862501,0.0001328,53.2145,187.6216,114.0462,246.0669,0.00081181,0.00012664,0.0,0 STARLINK-4024,1 52599U 22052B   23062.37044939  .00012664  00000-0  81181-3 0  9994,2 52599  53.2145 187.6216 0001328 114.0462 246.0669 15.08862501 44811,6917.812,95.436,540.595,538.758,0.0
52599.0,STARLINK-4024,PAYLOAD,2023-03-03 12:04:12,15.08867296,0.000176,53.2151,187.0267,121.4055,238.711,0.00087387,0.00013657,0.0,0 STARLINK-4024,1 52599U 22052B   23062.50292656  .00013657  00000-0  87387-3 0  9997,2 52599  53.2151 187.0267 0001760 121.4055 238.7110 15.08867296 45263,6917.797,95.436,540.879,538.444,0.0
52599.0,STARLINK-4024,PAYLOAD,2023-03-04 08:44:13,15.08831377,0.0001204,53.2148,183.1632,83.4225,276.6904,-0.00026662,-4.528e-05,0.0,0 STARLINK-4024,1 52599U 22052B   23063.36404486 -.00004528  00000-0 -26662-3 0  9996,2 52599  53.2148 183.1632 0001204  83.4225 276.6904 15.08831377 44960,6917.907,95.438,540.605,538.939,0.0
52599.0,STARLINK-4024,PAYLOAD,2023-03-04 11:54:59,15.08836908,0.0001452,53.2164,182.5697,98.525,261.5907,0.00023304,3.423e-05,0.0,0 STARLINK-4024,1 52599U 22052B   23063.49652526  .00003423  00000-0  23304-3 0  9991,2 52599  53.2164 182.5697 0001452  98.5250 261.5907 15.08836908 45414,6917.89,95.438,540.759,538.75,0.0
52599.0,STARLINK-4024,PAYLOAD,2023-03-04 18:16:32,15.08858021,0.0001307,53.2158,181.3801,76.5509,283.5629,0.0027723,0.00044131,0.0,0 STARLINK-4024,1 52599U 22052B   23063.76148579  .00044131  00000-0  27723-2 0  9998,2 52599  53.2158 181.3801 0001307  76.5509 283.5629 15.08858021 45025,6917.825,95.436,540.594,538.786,0.0
52599.0,STARLINK-4024,PAYLOAD,2023-03-05 00:38:05,15.08825449,0.0001267,53.2157,180.1888,95.6029,264.5107,-1.7253e-05,-5.62e-06,0.0,0 STARLINK-4024,1 52599U 22052B   23064.02644990 -.00000562  00000-0 -17253-4 0  9997,2 52599  53.2157 180.1888 0001267  95.6029 264.5107 15.08825449 45062,6917.925,95.438,540.666,538.913,0.0
52599.0,STARLINK-4024,PAYLOAD,2023-03-06 06:50:24,15.08879936,0.0002508,53.2151,174.5404,63.1496,296.9752,0.0035517,0.00056756,0.0,0 STARLINK-4024,1 52599U 22052B   23065.28500939  .00056756  00000-0  35517-2 0  9995,2 52599  53.2151 174.5404 0002508  63.1496 296.9752 15.08879936 45250,6917.758,95.435,541.358,537.888,0.0
52599.0,STARLINK-4024,PAYLOAD,2023-03-06 11:36:33,15.08884827,0.0001553,53.2154,173.6481,51.8661,308.2471,0.0036499,0.00058353,0.0,0 STARLINK-4024,1 52599U 22052B   23065.48372331  .00058353  00000-0  36499-2 0  9995,2 52599  53.2154 173.6481 0001553  51.8661 308.2471 15.08884827 45288,6917.743,95.435,540.683,538.534,0.0
52599.0,STARLINK-4024,PAYLOAD,2023-03-07 06:41:11,15.08785981,0.0001407,53.2155,170.0806,75.4788,284.636,0.0020905,0.0003309,0.0,0 STARLINK-4024,1 52599U 22052B   23066.27860789  .00033090  00000-0  20905-2 0  9998,2 52599  53.2155 170.0806 0001407  75.4788 284.6360 15.08785981 45400,6918.046,95.441,540.884,538.937,0.0
